{
  "norad_id": 57117,
  "name": "STARLINK-6148",
  "history": [
    {
      "epoch": "2026-03-28T16:40:27.644160Z",
      "apogee_km": 559.9214371893704,
      "perigee_km": 558.1746539948908,
      "latitude_deg": -8.683709765397175e-06,
      "longitude_deg": 95.02957985273844,
      "height_km": 558.855617500131,
      "semi_major_axis_km": 6937.18504559213,
      "eccentricity": 0.0001259,
      "inclination_deg": 43.0029,
      "raan_deg": 171.2563,
      "arg_perigee_deg": 268.1504,
      "mean_anomaly_deg": 91.9194,
      "mean_motion_rev_day": 15.0254623
    },
    {
      "epoch": "2026-03-29T05:26:17.763072Z",
      "apogee_km": 559.5637265557052,
      "perigee_km": 558.5647695759835,
      "latitude_deg": -3.4723148378528e-05,
      "longitude_deg": -99.84227236986433,
      "height_km": 558.9091187261895,
      "semi_major_axis_km": 6937.201248065844,
      "eccentricity": 7.2e-05,
      "inclination_deg": 43.0,
      "raan_deg": 168.3675,
      "arg_perigee_deg": 262.3732,
      "mean_anomaly_deg": 97.7028,
      "mean_motion_rev_day": 15.02540966
    },
    {
      "epoch": "2026-03-30T05:22:13.166400Z",
      "apogee_km": 559.7341625235877,
      "perigee_km": 558.3869587573108,
      "latitude_deg": -1.6884288143365117e-06,
      "longitude_deg": -105.2240383220755,
      "height_km": 558.8351925554524,
      "semi_major_axis_km": 6937.1975606404485,
      "eccentricity": 9.71e-05,
      "inclination_deg": 43.0014,
      "raan_deg": 162.9494,
      "arg_perigee_deg": 270.3692,
      "mean_anomaly_deg": 89.7039,
      "mean_motion_rev_day": 15.02542164
    },
    {
      "epoch": "2026-03-30T06:57:56.878560Z",
      "apogee_km": 559.5854658266962,
      "perigee_km": 558.5225494205079,
      "latitude_deg": -3.0028185710176462e-06,
      "longitude_deg": -129.58329750154556,
      "height_km": 558.8907847583132,
      "semi_major_axis_km": 6937.191007623602,
      "eccentricity": 7.661e-05,
      "inclination_deg": 43.0017,
      "raan_deg": 162.5878,
      "arg_perigee_deg": 263.738,
      "mean_anomaly_deg": 96.3375,
      "mean_motion_rev_day": 15.02544293
    },
    {
      "epoch": "2026-03-30T13:20:51.318528Z",
      "apogee_km": 559.8539540374868,
      "perigee_km": 558.2203882636641,
      "latitude_deg": -4.8319016147988846e-05,
      "longitude_deg": 132.9830305231466,
      "height_km": 558.9294223482199,
      "semi_major_axis_km": 6937.174171150575,
      "eccentricity": 0.00011774,
      "inclination_deg": 43.002,
      "raan_deg": 161.1431,
      "arg_perigee_deg": 262.0439,
      "mean_anomaly_deg": 98.0269,
      "mean_motion_rev_day": 15.02549763
    },
    {
      "epoch": "2026-03-30T21:19:25.590432Z",
      "apogee_km": 560.1998526959678,
      "perigee_km": 557.6672669759837,
      "latitude_deg": -2.6488111849405424e-05,
      "longitude_deg": 11.204384240982687,
      "height_km": 559.2425131104617,
      "semi_major_axis_km": 6937.0705598359755,
      "eccentricity": 0.00018254,
      "inclination_deg": 43.0003,
      "raan_deg": 159.3348,
      "arg_perigee_deg": 245.2771,
      "mean_anomaly_deg": 114.7881,
      "mean_motion_rev_day": 15.02583426
    },
    {
      "epoch": "2026-03-31T13:15:55.399392Z",
      "apogee_km": 557.7253202084366,
      "perigee_km": 557.1663122334494,
      "latitude_deg": 3.49788392158923e-05,
      "longitude_deg": 127.81094789066965,
      "height_km": 557.1995994572616,
      "semi_major_axis_km": 6935.582816220943,
      "eccentricity": 4.03e-05,
      "inclination_deg": 43.0019,
      "raan_deg": 155.7202,
      "arg_perigee_deg": 275.0624,
      "mean_anomaly_deg": 85.0173,
      "mean_motion_rev_day": 15.03066928
    },
    {
      "epoch": "2026-04-01T20:00:01.999008Z",
      "apogee_km": 549.8297243179932,
      "perigee_km": 547.6062038745185,
      "latitude_deg": 41.86215985931344,
      "longitude_deg": 125.67598246946544,
      "height_km": 552.6425860749729,
      "semi_major_axis_km": 6926.854964096256,
      "eccentricity": 0.0001605,
      "inclination_deg": 43.0001,
      "raan_deg": 148.7447,
      "arg_perigee_deg": 303.142,
      "mean_anomaly_deg": 159.5414,
      "mean_motion_rev_day": 15.05908624
    },
    {
      "epoch": "2026-04-02T20:00:01.999008Z",
      "apogee_km": 545.645211380006,
      "perigee_km": 543.7040549980602,
      "latitude_deg": 31.201963045408984,
      "longitude_deg": 151.8516463407166,
      "height_km": 546.4231169546808,
      "semi_major_axis_km": 6922.811633189033,
      "eccentricity": 0.0001402,
      "inclination_deg": 42.9991,
      "raan_deg": 143.274,
      "arg_perigee_deg": 304.9754,
      "mean_anomaly_deg": 185.82,
      "mean_motion_rev_day": 15.07228126
    },
    {
      "epoch": "2026-04-02T22:00:01.999584Z",
      "apogee_km": 545.1313390145397,
      "perigee_km": 543.4754912672379,
      "latitude_deg": -28.037568840265575,
      "longitude_deg": -163.83966070357093,
      "height_km": 550.9949827623734,
      "semi_major_axis_km": 6922.440415140888,
      "eccentricity": 0.0001196,
      "inclination_deg": 42.9998,
      "raan_deg": 142.8186,
      "arg_perigee_deg": 268.2719,
      "mean_anomaly_deg": 315.0006,
      "mean_motion_rev_day": 15.07349366
    },
    {
      "epoch": "2026-04-03T20:00:01.999008Z",
      "apogee_km": 543.0857911878993,
      "perigee_km": 540.9059493337663,
      "latitude_deg": 10.929420978814381,
      "longitude_deg": 173.75082970182336,
      "height_km": 541.4070759389598,
      "semi_major_axis_km": 6920.1328702608325,
      "eccentricity": 0.0001575,
      "inclination_deg": 43.0001,
      "raan_deg": 137.8057,
      "arg_perigee_deg": 275.0187,
      "mean_anomaly_deg": 248.87,
      "mean_motion_rev_day": 15.08103376
    },
    {
      "epoch": "2026-04-04T20:00:01.999008Z",
      "apogee_km": 537.1475914018001,
      "perigee_km": 535.5807654347709,
      "latitude_deg": -14.565663799382445,
      "longitude_deg": -164.7544685625897,
      "height_km": 539.1625370808952,
      "semi_major_axis_km": 6914.501178418285,
      "eccentricity": 0.0001133,
      "inclination_deg": 43.0003,
      "raan_deg": 132.3135,
      "arg_perigee_deg": 291.9972,
      "mean_anomaly_deg": 269.4506,
      "mean_motion_rev_day": 15.09946221
    },
    {
      "epoch": "2026-04-05T14:00:03.000384Z",
      "apogee_km": 535.004661763267,
      "perigee_km": 531.6112805113389,
      "latitude_deg": -24.365039589887097,
      "longitude_deg": 55.41828179316277,
      "height_km": 538.3423873472976,
      "semi_major_axis_km": 6911.444971137303,
      "eccentricity": 0.00024549,
      "inclination_deg": 42.9995,
      "raan_deg": 128.1994,
      "arg_perigee_deg": 264.7664,
      "mean_anomaly_deg": 58.2643,
      "mean_motion_rev_day": 15.10947868
    },
    {
      "epoch": "2026-04-05T20:00:03.000384Z",
      "apogee_km": 533.1053569073729,
      "perigee_km": 531.3349234080642,
      "latitude_deg": -38.0336451388017,
      "longitude_deg": -130.7865414512909,
      "height_km": 542.5821407907916,
      "semi_major_axis_km": 6910.357140157718,
      "eccentricity": 0.0001281,
      "inclination_deg": 42.9997,
      "raan_deg": 126.8214,
      "arg_perigee_deg": 244.39,
      "mean_anomaly_deg": 359.7654,
      "mean_motion_rev_day": 15.11304663
    },
    {
      "epoch": "2026-04-06T04:00:05.000256Z",
      "apogee_km": 531.8025807161112,
      "perigee_km": 530.0124472825328,
      "latitude_deg": -42.28715532124953,
      "longitude_deg": 126.44151684385811,
      "height_km": 543.0803715537393,
      "semi_major_axis_km": 6909.044513999322,
      "eccentricity": 0.00012955,
      "inclination_deg": 42.9987,
      "raan_deg": 124.9851,
      "arg_perigee_deg": 237.3097,
      "mean_anomaly_deg": 22.2849,
      "mean_motion_rev_day": 15.11735375
    },
    {
      "epoch": "2026-04-07T14:00:01.999872Z",
      "apogee_km": 526.573386762826,
      "perigee_km": 523.8545710133003,
      "latitude_deg": 36.5631754087074,
      "longitude_deg": 123.58063145904343,
      "height_km": 527.9340487978386,
      "semi_major_axis_km": 6903.350978888063,
      "eccentricity": 0.00019692,
      "inclination_deg": 42.9994,
      "raan_deg": 117.1691,
      "arg_perigee_deg": 286.151,
      "mean_anomaly_deg": 134.3668,
      "mean_motion_rev_day": 15.13605965
    },
    {
      "epoch": "2026-04-07T20:00:00.999360Z",
      "apogee_km": 525.6497379341654,
      "perigee_km": 522.7328140047412,
      "latitude_deg": -10.923743201148334,
      "longitude_deg": -32.20317227699981,
      "height_km": 526.1965726303595,
      "semi_major_axis_km": 6902.328275969453,
      "eccentricity": 0.0002113,
      "inclination_deg": 43.0005,
      "raan_deg": 115.7834,
      "arg_perigee_deg": 247.307,
      "mean_anomaly_deg": 96.7121,
      "mean_motion_rev_day": 15.13942379
    },
    {
      "epoch": "2026-04-08T14:00:04.999680Z",
      "apogee_km": 522.1041038582871,
      "perigee_km": 520.0437235110248,
      "latitude_deg": 37.67036477820282,
      "longitude_deg": -170.64387525385536,
      "height_km": 523.9471279599351,
      "semi_major_axis_km": 6899.210913684656,
      "eccentricity": 0.00014932,
      "inclination_deg": 43.0003,
      "raan_deg": 111.6449,
      "arg_perigee_deg": 327.8224,
      "mean_anomaly_deg": 148.8919,
      "mean_motion_rev_day": 15.14968592
    },
    {
      "epoch": "2026-04-09T20:00:01.999008Z",
      "apogee_km": 516.8399362101663,
      "perigee_km": 514.9302920845475,
      "latitude_deg": 41.73698889451327,
      "longitude_deg": 74.56828439128866,
      "height_km": 519.5265434002583,
      "semi_major_axis_km": 6894.022114147357,
      "eccentricity": 0.0001385,
      "inclination_deg": 43.0008,
      "raan_deg": 104.7162,
      "arg_perigee_deg": 317.1041,
      "mean_anomaly_deg": 146.1915,
      "mean_motion_rev_day": 15.1667928
    }
  ]
}